2022-023A               
1 51946U 22023A   26066.38437076  .00004303  00000+0  19500-3 0  9999
2 51946  63.4765 256.0240 0098533 341.4326  18.3199 15.18202647222269
STARLINK-32224          
1 60941U 24155T   26068.45128643  .00002371  00000+0  92170-4 0  9997
2 60941  53.1600 130.8257 0001161  71.2422 288.8705 15.30191785 86316
